[{"OBJECT_NAME":"DIWATA-2B","OBJECT_ID":"2018-084H","EPOCH":"2022-08-19T06:44:08.941056","MEAN_MOTION":14.92262321,"ECCENTRICITY":0.0011326,"INCLINATION":97.9796,"RA_OF_ASC_NODE":5.3141,"ARG_OF_PERICENTER":79.2285,"MEAN_ANOMALY":281.0214,"EPHEMERIS_TYPE":0,"CLASSIFICATION_TYPE":"U","NORAD_CAT_ID":43678,"ELEMENT_SET_NO":999,"REV_AT_EPOCH":20722,"BSTAR":0.00011141,"MEAN_MOTION_DOT":1.079e-5,"MEAN_MOTION_DDOT":0},{"OBJECT_NAME":"ES'HAIL 2","OBJECT_ID":"2018-090A","EPOCH":"2022-08-18T20:40:17.410368","MEAN_MOTION":1.00273027,"ECCENTRICITY":0.0002049,"INCLINATION":0.0125,"RA_OF_ASC_NODE":108.9879,"ARG_OF_PERICENTER":83.3768,"MEAN_ANOMALY":110.6545,"EPHEMERIS_TYPE":0,"CLASSIFICATION_TYPE":"U","NORAD_CAT_ID":43700,"ELEMENT_SET_NO":999,"REV_AT_EPOCH":1365,"BSTAR":0,"MEAN_MOTION_DOT":1.37e-6,"MEAN_MOTION_DDOT":0},{"OBJECT_NAME":"FOX-1CLIFF (AO-95)","OBJECT_ID":"2018-099N","EPOCH":"2022-08-19T04:08:32.230464","MEAN_MOTION":14.96683346,"ECCENTRICITY":0.001516,"INCLINATION":97.6158,"RA_OF_ASC_NODE":295.8906,"ARG_OF_PERICENTER":68.0692,"MEAN_ANOMALY":292.2139,"EPHEMERIS_TYPE":0,"CLASSIFICATION_TYPE":"U","NORAD_CAT_ID":43770,"ELEMENT_SET_NO":999,"REV_AT_EPOCH":20239,"BSTAR":0.00021035,"MEAN_MOTION_DOT":2.349e-5,"MEAN_MOTION_DDOT":0},{"OBJECT_NAME":"ITASAT 1","OBJECT_ID":"2018-099AE","EPOCH":"2022-08-19T03:51:03.737088","MEAN_MOTION":14.96799506,"ECCENTRICITY":0.0016069,"INCLINATION":97.6195,"RA_OF_ASC_NODE":296.8307,"ARG_OF_PERICENTER":60.8713,"MEAN_ANOMALY":299.4115,"EPHEMERIS_TYPE":0,"CLASSIFICATION_TYPE":"U","NORAD_CAT_ID":43786,"ELEMENT_SET_NO":999,"REV_AT_EPOCH":20243,"BSTAR":0.00012246,"MEAN_MOTION_DOT":1.348e-5,"MEAN_MOTION_DDOT":0},{"OBJECT_NAME":"JY1SAT (JO-97)","OBJECT_ID":"2018-099AX","EPOCH":"2022-08-19T03:45:09.808128","MEAN_MOTION":14.97352819,"ECCENTRICITY":0.0015986,"INCLINATION":97.6157,"RA_OF_ASC_NODE":296.6012,"ARG_OF_PERICENTER":60.0305,"MEAN_ANOMALY":300.2502,"EPHEMERIS_TYPE":0,"CLASSIFICATION_TYPE":"U","NORAD_CAT_ID":43803,"ELEMENT_SET_NO":999,"REV_AT_EPOCH":20245,"BSTAR":0.00017668,"MEAN_MOTION_DOT":1.999e-5,"MEAN_MOTION_DDOT":0},{"OBJECT_NAME":"UWE-4","OBJECT_ID":"2018-111E","EPOCH":"2022-08-18T12:14:00.745440","MEAN_MOTION":14.98435359,"ECCENTRICITY":0.0013324,"INCLINATION":97.6627,"RA_OF_ASC_NODE":135.7342,"ARG_OF_PERICENTER":107.3364,"MEAN_ANOMALY":252.9317,"EPHEMERIS_TYPE":0,"CLASSIFICATION_TYPE":"U","NORAD_CAT_ID":43880,"ELEMENT_SET_NO":999,"REV_AT_EPOCH":19899,"BSTAR":0.00017676,"MEAN_MOTION_DOT":2.056e-5,"MEAN_MOTION_DDOT":0},{"OBJECT_NAME":"NEXUS (FO-99)","OBJECT_ID":"2019-003F","EPOCH":"2022-08-19T00:44:21.844032","MEAN_MOTION":15.31984232,"ECCENTRICITY":0.0017892,"INCLINATION":97.1272,"RA_OF_ASC_NODE":261.9874,"ARG_OF_PERICENTER":291.1657,"MEAN_ANOMALY":68.7673,"EPHEMERIS_TYPE":0,"CLASSIFICATION_TYPE":"U","NORAD_CAT_ID":43937,"ELEMENT_SET_NO":999,"REV_AT_EPOCH":19955,"BSTAR":0.00049586,"MEAN_MOTION_DOT":0.00015326,"MEAN_MOTION_DDOT":0},{"OBJECT_NAME":"PSAT2 (NO-104)","OBJECT_ID":"2019-036R","EPOCH":"2022-08-18T08:46:46.808256","MEAN_MOTION":15.45517851,"ECCENTRICITY":0.021041,"INCLINATION":28.5249,"RA_OF_ASC_NODE":107.1387,"ARG_OF_PERICENTER":312.0587,"MEAN_ANOMALY":46.2286,"EPHEMERIS_TYPE":0,"CLASSIFICATION_TYPE":"U","NORAD_CAT_ID":44354,"ELEMENT_SET_NO":999,"REV_AT_EPOCH":17424,"BSTAR":0.00050305,"MEAN_MOTION_DOT":0.00062822,"MEAN_MOTION_DDOT":-5.5978e-6},{"OBJECT_NAME":"JAISAT-1","OBJECT_ID":"2019-038F","EPOCH":"2022-08-18T16:11:01.684320","MEAN_MOTION":15.18140475,"ECCENTRICITY":0.0016912,"INCLINATION":97.6403,"RA_OF_ASC_NODE":201.3491,"ARG_OF_PERICENTER":276.7117,"MEAN_ANOMALY":83.2191,"EPHEMERIS_TYPE":0,"CLASSIFICATION_TYPE":"U","NORAD_CAT_ID":44419,"ELEMENT_SET_NO":999,"REV_AT_EPOCH":17249,"BSTAR":0.00043572,"MEAN_MOTION_DOT":8.86e-5,"MEAN_MOTION_DDOT":0},{"OBJECT_NAME":"DUCHIFAT-3","OBJECT_ID":"2019-089C","EPOCH":"2022-08-18T23:39:51.957792","MEAN_MOTION":15.01409667,"ECCENTRICITY":0.0008609,"INCLINATION":36.9653,"RA_OF_ASC_NODE":89.5309,"ARG_OF_PERICENTER":359.3404,"MEAN_ANOMALY":138.6079,"EPHEMERIS_TYPE":0,"CLASSIFICATION_TYPE":"U","NORAD_CAT_ID":44854,"ELEMENT_SET_NO":999,"REV_AT_EPOCH":14733,"BSTAR":0.0002093,"MEAN_MOTION_DOT":2.674e-5,"MEAN_MOTION_DDOT":0},{"OBJECT_NAME":"CAS-6 (TIANQIN 1)","OBJECT_ID":"2019-093C","EPOCH":"2022-08-19T02:38:22.527744","MEAN_MOTION":14.81786988,"ECCENTRICITY":0.001464,"INCLINATION":97.8911,"RA_OF_ASC_NODE":309.4163,"ARG_OF_PERICENTER":348.0613,"MEAN_ANOMALY":12.0256,"EPHEMERIS_TYPE":0,"CLASSIFICATION_TYPE":"U","NORAD_CAT_ID":44881,"ELEMENT_SET_NO":999,"REV_AT_EPOCH":14405,"BSTAR":5.5074e-5,"MEAN_MOTION_DOT":3.82e-6,"MEAN_MOTION_DDOT":0},{"OBJECT_NAME":"RS-44 & BREEZE-KM R\/B","OBJECT_ID":"2019-096E","EPOCH":"2022-08-18T08:18:11.666304","MEAN_MOTION":12.79714273,"ECCENTRICITY":0.0217386,"INCLINATION":82.5229,"RA_OF_ASC_NODE":189.1587,"ARG_OF_PERICENTER":174.723,"MEAN_ANOMALY":185.6237,"EPHEMERIS_TYPE":0,"CLASSIFICATION_TYPE":"U","NORAD_CAT_ID":44909,"ELEMENT_SET_NO":999,"REV_AT_EPOCH":12342,"BSTAR":-1.6904e-5,"MEAN_MOTION_DOT":8.0e-8,"MEAN_MOTION_DDOT":0},{"OBJECT_NAME":"ORBITAL FACTORY 2 (OF-2)","OBJECT_ID":"2019-071C","EPOCH":"2022-08-18T09:23:58.648128","MEAN_MOTION":15.48179149,"ECCENTRICITY":0.00091,"INCLINATION":51.6369,"RA_OF_ASC_NODE":113.9855,"ARG_OF_PERICENTER":47.7085,"MEAN_ANOMALY":312.4673,"EPHEMERIS_TYPE":0,"CLASSIFICATION_TYPE":"U","NORAD_CAT_ID":45113,"ELEMENT_SET_NO":999,"REV_AT_EPOCH":14296,"BSTAR":0.00055666,"MEAN_MOTION_DOT":0.00029504,"MEAN_MOTION_DDOT":0},{"OBJECT_NAME":"HUSKYSAT-1 (HO-107)","OBJECT_ID":"2019-071J","EPOCH":"2022-08-18T09:02:03.866496","MEAN_MOTION":15.46902181,"ECCENTRICITY":0.0009009,"INCLINATION":51.6369,"RA_OF_ASC_NODE":114.6042,"ARG_OF_PERICENTER":43.6395,"MEAN_ANOMALY":316.5304,"EPHEMERIS_TYPE":0,"CLASSIFICATION_TYPE":"U","NORAD_CAT_ID":45119,"ELEMENT_SET_NO":999,"REV_AT_EPOCH":14294,"BSTAR":0.00062114,"MEAN_MOTION_DOT":0.00031535,"MEAN_MOTION_DDOT":0},{"OBJECT_NAME":"BY70-2","OBJECT_ID":"2020-042B","EPOCH":"2022-08-19T03:52:12.120960","MEAN_MOTION":14.8044326,"ECCENTRICITY":0.0008721,"INCLINATION":97.9535,"RA_OF_ASC_NODE":307.4259,"ARG_OF_PERICENTER":271.6945,"MEAN_ANOMALY":88.328,"EPHEMERIS_TYPE":0,"CLASSIFICATION_TYPE":"U","NORAD_CAT_ID":45857,"ELEMENT_SET_NO":999,"REV_AT_EPOCH":11473,"BSTAR":0.00063159,"MEAN_MOTION_DOT":4.78e-5,"MEAN_MOTION_DDOT":0},{"OBJECT_NAME":"SALSAT","OBJECT_ID":"2020-068K","EPOCH":"2022-08-18T11:26:56.083200","MEAN_MOTION":15.04722748,"ECCENTRICITY":0.0018064,"INCLINATION":97.7308,"RA_OF_ASC_NODE":171.8131,"ARG_OF_PERICENTER":69.3851,"MEAN_ANOMALY":290.931,"EPHEMERIS_TYPE":0,"CLASSIFICATION_TYPE":"U","NORAD_CAT_ID":46495,"ELEMENT_SET_NO":999,"REV_AT_EPOCH":10351,"BSTAR":0.00011486,"MEAN_MOTION_DOT":1.56e-5,"MEAN_MOTION_DDOT":0},{"OBJECT_NAME":"BY70-3","OBJECT_ID":"2020-079N","EPOCH":"2022-08-19T04:59:40.941600","MEAN_MOTION":15.44337381,"ECCENTRICITY":0.0006905,"INCLINATION":97.194,"RA_OF_ASC_NODE":302.5672,"ARG_OF_PERICENTER":104.821,"MEAN_ANOMALY":331.1014,"EPHEMERIS_TYPE":0,"CLASSIFICATION_TYPE":"U","NORAD_CAT_ID":46839,"ELEMENT_SET_NO":999,"REV_AT_EPOCH":9992,"BSTAR":0.00043927,"MEAN_MOTION_DOT":0.00020206,"MEAN_MOTION_DDOT":0}]